FLOCK 4G-24             
1 62637U 25009AE  26068.72509072  .00010513  00000+0  38996-3 0  9991
2 62637  97.4061 151.5140 0001802 280.2808  79.8228 15.27784978 63732
STARLINK-32658          
1 62999U 25031U   26068.53782840  .00032355  00000+0  11798-2 0  9990
2 62999  43.0011 144.0508 0001566 269.4702  90.5970 15.27589784 61076
